satname,norad_id,inclination_deg,eccentricity,mean_motion_rev_per_day,perigee_km,apogee_km,l1,l2
STARLINK-1265,45406,53.1596,0.0002002,15.30982425,471.50831082017885,474.2514579806939,1 45406U 20019AY  26087.57463916  .00021821  00000+0  72888-3 0  9994,2 45406  53.1596  41.6018 0002002  93.0783 267.0447 15.30982425332865
STARLINK-1278,45408,53.0458,0.000354,15.58855978,388.5706259287872,393.3631514819899,1 45408U 20019BA  26087.58168681  .00104030  00000+0  13091-2 0  9992,2 45408  53.0458  38.6977 0003540 102.8467 257.2940 15.58855978332905
STARLINK-1296,45412,53.1566,0.0001726,15.31569521,469.94679064096727,472.3111572551743,1 45412U 20019BE  26087.89015094  .00064299  00000+0  20744-2 0  9995,2 45412  53.1566  39.9883 0001726 116.2405 243.8774 15.31569521332910
STARLINK-1298,45413,53.0212,0.0006185,16.32240689,182.4648260582053,190.58531303823656,1 45413U 20019BF  26087.87844745  .04015807  12143-4  68655-3 0  9992,2 45413  53.0212 313.4922 0006185 266.8689  93.1646 16.32240689334203
STARLINK-1309,45414,53.0673,0.0006998,15.58313711,387.7990361823486,397.27527172822556,1 45414U 20019BG  26087.82560284  .00106582  00000+0  13674-2 0  9992,2 45414  53.0673  30.9072 0006998 101.9265 258.2532 15.58313711333013
STARLINK-1316,45415,53.1605,0.0001464,15.31586001,470.07711604508495,472.0825667362433,1 45415U 20019BH  26087.87007264  .00056368  00000+0  18210-2 0  9999,2 45415  53.1605  40.1332 0001464 136.6688 223.4429 15.31586001332933
STARLINK-1286,45417,53.0499,0.000382,15.52308747,407.39400666972233,412.58013345925247,1 45417U 20019BK  26087.86584816  .00045600  00000+0  73989-3 0  9995,2 45417  53.0499  38.4817 0003820 107.3835 252.7592 15.52308747333209
STARLINK-1308,45419,53.0527,0.000561,15.53826152,401.76135066404186,409.37266656170596,1 45419U 20019BM  26087.22509415  .00096742  00000+0  14680-2 0  9994,2 45419  53.0527  62.8667 0005610  83.2484 276.9164 15.53826152332554
STARLINK-1329,45531,53.0475,8.68e-05,15.64974214,372.72689475650805,373.8989464627266,1 45531U 20025A   26087.15905602  .00062310  00000+0  62418-3 0  9993,2 45531  53.0475 351.4118 0000868 119.9041 240.2060 15.64974214328330
STARLINK-1338,45532,53.0494,0.0004467,15.57712025,391.25530858148795,397.30578641842385,1 45532U 20025B   26087.45309426  .00106180  00000+0  13942-2 0  9990,2 45532  53.0494 353.8271 0004467  82.1700 277.9819 15.57712025328320
STARLINK-1350,45535,53.0734,0.0002144,15.36589312,454.7385881280752,457.669153493478,1 45535U 20025E   26087.85082486  .00012428  00000+0  35298-3 0  9991,2 45535  53.0734 303.1223 0002144 106.3094 253.8144 15.36589312329109
STARLINK-1362,45538,53.1631,0.0001933,15.29838031,474.97109479064693,477.6210186103672,1 45538U 20025H   26087.79303921 -.00177682  00000+0 -61996-2 0  9996,2 45538  53.1631  12.2651 0001933  61.2414 298.8781 15.29838031328104
STARLINK-1368,45540,53.1601,0.0001224,15.30191294,474.4022106142593,476.07991756434876,1 45540U 20025K   26087.21491185  .00000730  00000+0  36787-4 0  9995,2 45540  53.1601  15.2772 0001224  80.0777 280.0362 15.30191294328007
STARLINK-1371,45542,53.0513,0.000184,15.50007952,415.4525788947594,417.9530799519871,1 45542U 20025M   26087.07660744  .00086239  00000+0  15039-2 0  9993,2 45542  53.0513   1.3818 0001840 102.9789 257.1425 15.50007952328181
STARLINK-1372,45543,53.1631,0.0001473,15.30193304,474.22556083645577,476.2445642460807,1 45543U 20025N   26087.77952052  .00002441  00000+0  94531-4 0  9996,2 45543  53.1631  12.3532 0001473  85.8176 274.2993 15.30193304327195
STARLINK-1373,45544,53.05,0.0004455,15.5401302,402.0012789279954,408.0450746455126,1 45544U 20025P   26087.75295023  .00104169  00000+0  15684-2 0  9993,2 45544  53.0500 357.1597 0004455  90.4818 269.6702 15.54013020328301
STARLINK-1327,45555,53.0465,0.0006309,15.57516624,390.5738904789605,399.12004164733935,1 45555U 20025AA  26087.85913072  .00060533  00000+0  80775-3 0  9997,2 45555  53.0465 333.8222 0006309 134.5794 225.5733 15.57516624328634
STARLINK-1356,45564,53.0504,0.0005211,15.47635859,420.0997084553137,427.1885247350301,1 45564U 20025AK  26087.86248457  .00077493  00000+0  14703-2 0  9996,2 45564  53.0504 342.3680 0005211 112.1266 248.0294 15.47635859328518
STARLINK-1357,45565,53.0505,0.0003654,15.59423677,386.85112385879347,391.7967843240431,1 45565U 20025AL  26087.90002922  .00068118  00000+0  84488-3 0  9999,2 45565  53.0505 304.7797 0003654 198.4179 161.6702 15.59423677329050
STARLINK-1361,45567,53.0501,0.0007025,15.50835907,409.512534296935,419.0558860972633,1 45567U 20025AN  26087.84835977  .00086685  00000+0  14668-2 0  9999,2 45567  53.0501 342.0712 0007025  99.0849 261.0954 15.50835907328525
STARLINK-1363,45568,53.0398,0.0005342,15.8157339,322.4093080585326,329.5719980430513,1 45568U 20025AP  26087.91668981  .00174594  00000+0  84197-3 0  9999,2 45568  53.0398 301.3518 0005342 131.9460 109.4908 15.81573390  5982
STARLINK-1366,45569,53.04,0.0005733,15.80248211,325.8925103866759,333.58376001669876,1 45569U 20025AQ  26087.91668981  .00161523  00000+0  82932-3 0  9993,2 45569  53.0400 302.2834 0005733 129.2103 311.1436 15.80248211  6042
STARLINK-1376,45570,53.1622,0.0001489,15.3166212,469.8331012632343,471.872730460178,1 45570U 20025AR  26087.71868984  .00054691  00000+0  17634-2 0  9991,2 45570  53.1622 349.3402 0001489 148.8581 211.2509 15.31662120328419
STARLINK-1320,45572,53.0462,0.0004791,15.71700622,350.8109810768583,357.2617495955237,1 45572U 20025AT  26087.71063406  .00096632  00000+0  72953-3 0  9996,2 45572  53.0462 251.6585 0004791 102.0159 258.1395 15.71700622329790
STARLINK-1321,45573,53.049,0.0004226,15.51503735,409.46526741433445,415.20457428183545,1 45573U 20025AU  26087.84386030  .00086463  00000+0  14295-2 0  9997,2 45573  53.0490 326.5724 0004226 134.8902 225.2450 15.51503735328432
STARLINK-1331,45578,53.0527,0.0005308,15.51404344,409.02040318872514,416.2294760638324,1 45578U 20025AZ  26087.85241204  .00080094  00000+0  13303-2 0  9999,2 45578  53.0527 333.2269 0005308 155.8185 204.3074 15.51404344328655
STARLINK-1333,45580,53.1623,0.0001332,15.30191506,474.32756121576494,476.1533009634077,1 45580U 20025BB  26087.11213522 -.00000233  00000+0  42535-5 0  9993,2 45580  53.1623 352.2392 0001332  95.1230 264.9923 15.30191506328323
STARLINK-1335,45581,53.159,0.0001471,15.29364313,476.7029210069222,478.7199116109996,1 45581U 20025BC  26087.45862429 -.00000255  00000+0  35112-5 0  9994,2 45581  53.1590 347.9752 0001471  91.1519 268.9650 15.29364313328404
STARLINK-1337,45582,53.0528,0.0004912,15.61609517,379.68630305256374,386.32845128869576,1 45582U 20025BD  26087.84424225  .00118018  00000+0  13335-2 0  9992,2 45582  53.0528 328.5057 0004912 163.3158 196.8017 15.61609517328705
STARLINK-1347,45586,53.0432,0.0003808,15.57806558,391.4277302405144,396.5853947777214,1 45586U 20025BH  26087.91668981  .00115538  00000+0  15095-2 0  9992,2 45586  53.0432 296.3749 0003808 141.7009  30.3694 15.57806558  5963
STARLINK-1364,45589,53.0503,0.0007294,15.52760068,403.72136303266234,413.62195950772366,1 45589U 20025BL  26087.82317404  .00085184  00000+0  13458-2 0  9990,2 45589  53.0503 331.2238 0007294 132.5649 227.5977 15.52760068328667
STARLINK-1365,45590,53.0533,0.0004344,15.48054369,419.4640115383254,425.3723338723721,1 45590U 20025BM  26087.47128993  .00087490  00000+0  16331-2 0  9991,2 45590  53.0533   3.8594 0004344 114.5724 245.5736 15.48054369328192
STARLINK-1443,45660,53.1358,0.0003375,15.26763208,483.1794793100289,487.81243155494576,1 45660U 20035D   26087.83976502  .00048220  00000+0  18097-2 0  9996,2 45660  53.1358 336.4850 0003375 134.3236 225.8040 15.26763208321688
STARLINK-1446,45663,53.023,0.000145,15.43670761,434.29863381078303,436.2745266490492,1 45663U 20035G   26087.78565260  .00024607  00000+0  54480-3 0  9998,2 45663  53.0230 268.6134 0001450   1.2844 358.8164 15.43670761322628
STARLINK-1448,45665,53.0496,0.0007207,15.56112479,394.0364914568272,403.8049424500441,1 45665U 20035J   26087.87683704  .00103087  00000+0  14364-2 0  9990,2 45665  53.0496 320.0690 0007207 155.6613 204.4739 15.56112479321903
STARLINK-1451,45668,53.0538,0.0002076,15.11010437,531.6823974190047,534.5519501519593,1 45668U 20035M   26087.86808824  .00023159  00000+0  13835-2 0  9997,2 45668  53.0538 339.4076 0002076  93.5185 266.6043 15.11010437321649
STARLINK-1452,45669,53.0305,0.0005213,15.47997946,419.03820517014265,426.1286362807905,1 45669U 20035N   26087.80846037  .00086736  00000+0  16222-2 0  9993,2 45669  53.0305 290.4240 0005213 127.0584 233.0900 15.47997946322327
STARLINK-1453,45670,53.0456,0.0003406,15.56437042,395.6705950592832,400.2864849651396,1 45670U 20035P   26087.80049987  .00124170  00000+0  17050-2 0  9999,2 45670  53.0456 280.9896 0003406 125.1145 235.0185 15.56437042322346
STARLINK-1454,45671,53.0496,0.0007068,15.54759262,398.059711930493,407.64531870934843,1 45671U 20035Q   26087.80017882  .00106647  00000+0  15610-2 0  9998,2 45671  53.0496 320.7500 0007068 138.4884 221.6664 15.54759262321881
STARLINK-1456,45673,53.0487,0.0002355,15.52981511,406.4283405976021,409.6246235976705,1 45673U 20035S   26087.81570022  .00091909  00000+0  14399-2 0  9998,2 45673  53.0487 314.3521 0002355 196.6451 163.4481 15.52981511321999
STARLINK-1457,45674,53.0438,0.0004921,15.84346239,314.8709508109041,321.46145242193415,1 45674U 20035T   26087.91668981  .00239512  00000+0  10055-2 0  9991,2 45674  53.0438 285.7534 0004921 151.5456  56.5043 15.84346239  5999
STARLINK-1458,45675,53.0534,0.0006376,15.4537524,425.9346828212574,434.6167707304412,1 45675U 20035U   26087.83570922  .00077530  00000+0  15897-2 0  9999,2 45675  53.0534 324.4332 0006376 147.1602 212.9801 15.45375240321817
STARLINK-1460,45676,53.1611,0.0001558,15.30186687,474.18706148029196,476.3225783713806,1 45676U 20035V   26087.40970129 -.00000058  00000+0  10189-4 0  9999,2 45676  53.1611 337.9964 0001558  90.1822 269.9357 15.30186687321584
